{
  "type": "FeatureCollection",
  "features": [
    {
      "type": "Feature",
      "properties": {
        "norad_id": 30717,
        "name": "FENGYUN 1C DEB",
        "group": "fengyun-1c-debris",
        "lat": -1.735803509013368,
        "lon": -132.33255481356764,
        "alt_km": 834.5495042836046,
        "timestamp": "2025-12-03T08:58:46.279847+00:00",
        "meta_object_name": "FENGYUN 1C DEB",
        "meta_object_id": "1999-025ASB",
        "meta_epoch": "2025-11-30T02:21:23.039712",
        "meta_mean_motion": 14.20428729,
        "meta_eccentricity": 0.00475668,
        "meta_inclination": 99.0182,
        "meta_ra_of_asc_node": 44.6037,
        "meta_arg_of_pericenter": 294.0563,
        "meta_mean_anomaly": 65.5639,
        "meta_ephemeris_type": 0,
        "meta_classification_type": "U",
        "meta_norad_cat_id": 30717,
        "meta_element_set_no": 999,
        "meta_rev_at_epoch": 96357,
        "meta_bstar": 0.0015014558,
        "meta_mean_motion_dot": 3.211e-05,
        "meta_mean_motion_ddot": 0,
        "tle_line1": "1 30717U 99025ASB 25334.09818333  .00003211  00000+0  15015-2 0  9995",
        "tle_line2": "2 30717  99.0182  44.6037 0047566 294.0563  65.5639 14.20428729963573"
      },
      "geometry": {
        "type": "Point",
        "coordinates": [
          -132.33255481356764,
          -1.735803509013368
        ]
      }
    },
    {
      "type": "Feature",
      "properties": {
        "norad_id": 30718,
        "name": "FENGYUN 1C DEB",
        "group": "fengyun-1c-debris",
        "lat": 54.772789516082376,
        "lon": -109.52673383727293,
        "alt_km": 783.9374802282518,
        "timestamp": "2025-12-03T08:58:46.279858+00:00",
        "meta_object_name": "FENGYUN 1C DEB",
        "meta_object_id": "1999-025ASC",
        "meta_epoch": "2025-12-02T22:16:45.271200",
        "meta_mean_motion": 14.24222084,
        "meta_eccentricity": 0.0057739,
        "meta_inclination": 98.8917,
        "meta_ra_of_asc_node": 57.2136,
        "meta_arg_of_pericenter": 183.866,
        "meta_mean_anomaly": 176.208,
        "meta_ephemeris_type": 0,
        "meta_classification_type": "U",
        "meta_norad_cat_id": 30718,
        "meta_element_set_no": 999,
        "meta_rev_at_epoch": 96634,
        "meta_bstar": 0.0023738,
        "meta_mean_motion_dot": 5.527e-05,
        "meta_mean_motion_ddot": 0,
        "tle_line1": "1 30718U 99025ASC 25336.92830175  .00005527  00000+0  23738-2 0  9991",
        "tle_line2": "2 30718  98.8917  57.2136 0057739 183.8660 176.2080 14.24222084966341"
      },
      "geometry": {
        "type": "Point",
        "coordinates": [
          -109.52673383727293,
          54.772789516082376
        ]
      }
    },
    {
      "type": "Feature",
      "properties": {
        "norad_id": 30719,
        "name": "FENGYUN 1C DEB",
        "group": "fengyun-1c-debris",
        "lat": 40.16247906838872,
        "lon": 110.8925931925887,
        "alt_km": 702.5846684961925,
        "timestamp": "2025-12-03T08:58:46.279868+00:00",
        "meta_object_name": "FENGYUN 1C DEB",
        "meta_object_id": "1999-025ASD",
        "meta_epoch": "2025-12-02T21:16:08.399712",
        "meta_mean_motion": 14.58676315,
        "meta_eccentricity": 0.0011838,
        "meta_inclination": 98.8885,
        "meta_ra_of_asc_node": 117.9603,
        "meta_arg_of_pericenter": 219.0839,
        "meta_mean_anomaly": 140.9504,
        "meta_ephemeris_type": 0,
        "meta_classification_type": "U",
        "meta_norad_cat_id": 30719,
        "meta_element_set_no": 999,
        "meta_rev_at_epoch": 97305,
        "meta_bstar": 0.0051777,
        "meta_mean_motion_dot": 0.00024194,
        "meta_mean_motion_ddot": 0,
        "tle_line1": "1 30719U 99025ASD 25336.88620833  .00024194  00000+0  51777-2 0  9990",
        "tle_line2": "2 30719  98.8885 117.9603 0011838 219.0839 140.9504 14.58676315973051"
      },
      "geometry": {
        "type": "Point",
        "coordinates": [
          110.8925931925887,
          40.16247906838872
        ]
      }
    },
    {
      "type": "Feature",
      "properties": {
        "norad_id": 30720,
        "name": "FENGYUN 1C DEB",
        "group": "fengyun-1c-debris",
        "lat": -18.526411403712135,
        "lon": 153.579425447081,
        "alt_km": 777.3323767215334,
        "timestamp": "2025-12-03T08:58:46.279878+00:00",
        "meta_object_name": "FENGYUN 1C DEB",
        "meta_object_id": "1999-025ASE",
        "meta_epoch": "2025-12-01T10:17:46.773312",
        "meta_mean_motion": 14.2908859,
        "meta_eccentricity": 0.00323724,
        "meta_inclination": 99.0369,
        "meta_ra_of_asc_node": 148.5071,
        "meta_arg_of_pericenter": 2.1711,
        "meta_mean_anomaly": 57.7271,
        "meta_ephemeris_type": 0,
        "meta_classification_type": "U",
        "meta_norad_cat_id": 30720,
        "meta_element_set_no": 999,
        "meta_rev_at_epoch": 97327,
        "meta_bstar": 0.00040425799,
        "meta_mean_motion_dot": 9.83e-06,
        "meta_mean_motion_ddot": 0,
        "tle_line1": "1 30720U 99025ASE 25335.42901358  .00000983  00000+0  40426-3 0  9995",
        "tle_line2": "2 30720  99.0369 148.5071 0032372   2.1711  57.7271 14.29088590973278"
      },
      "geometry": {
        "type": "Point",
        "coordinates": [
          153.579425447081,
          -18.526411403712135
        ]
      }
    },
    {
      "type": "Feature",
      "properties": {
        "norad_id": 30721,
        "name": "FENGYUN 1C DEB",
        "group": "fengyun-1c-debris",
        "lat": -46.290996778526754,
        "lon": -81.20639427786755,
        "alt_km": 679.2327377946176,
        "timestamp": "2025-12-03T08:58:46.279888+00:00",
        "meta_object_name": "FENGYUN 1C DEB",
        "meta_object_id": "1999-025ASF",
        "meta_epoch": "2025-12-02T07:45:01.844064",
        "meta_mean_motion": 14.712053,
        "meta_eccentricity": 0.002731,
        "meta_inclination": 98.7095,
        "meta_ra_of_asc_node": 106.898,
        "meta_arg_of_pericenter": 13.6438,
        "meta_mean_anomaly": 49.0839,
        "meta_ephemeris_type": 0,
        "meta_classification_type": "U",
        "meta_norad_cat_id": 30721,
        "meta_element_set_no": 999,
        "meta_rev_at_epoch": 97689,
        "meta_bstar": 0.0039475,
        "meta_mean_motion_dot": 0.00024498,
        "meta_mean_motion_ddot": 0,
        "tle_line1": "1 30721U 99025ASF 25336.32293801  .00024498  00000+0  39475-2 0  9991",
        "tle_line2": "2 30721  98.7095 106.8980 0027310  13.6438  49.0839 14.71205300976898"
      },
      "geometry": {
        "type": "Point",
        "coordinates": [
          -81.20639427786755,
          -46.290996778526754
        ]
      }
    },
    {
      "type": "Feature",
      "properties": {
        "norad_id": 30723,
        "name": "FENGYUN 1C DEB",
        "group": "fengyun-1c-debris",
        "lat": 42.309531717713284,
        "lon": 54.92459701146141,
        "alt_km": 755.4722703058724,
        "timestamp": "2025-12-03T08:58:46.279899+00:00",
        "meta_object_name": "FENGYUN 1C DEB",
        "meta_object_id": "1999-025ASH",
        "meta_epoch": "2025-12-02T23:02:33.852192",
        "meta_mean_motion": 14.4111375,
        "meta_eccentricity": 0.0014741,
        "meta_inclination": 98.8451,
        "meta_ra_of_asc_node": 62.6448,
        "meta_arg_of_pericenter": 290.8084,
        "meta_mean_anomaly": 125.2764,
        "meta_ephemeris_type": 0,
        "meta_classification_type": "U",
        "meta_norad_cat_id": 30723,
        "meta_element_set_no": 999,
        "meta_rev_at_epoch": 97230,
        "meta_bstar": 0.0029714,
        "meta_mean_motion_dot": 9.55e-05,
        "meta_mean_motion_ddot": 0,
        "tle_line1": "1 30723U 99025ASH 25336.96011403  .00009550  00000+0  29714-2 0  9996",
        "tle_line2": "2 30723  98.8451  62.6448 0014741 290.8084 125.2764 14.41113750972305"
      },
      "geometry": {
        "type": "Point",
        "coordinates": [
          54.92459701146141,
          42.309531717713284
        ]
      }
    },
    {
      "type": "Feature",
      "properties": {
        "norad_id": 30724,
        "name": "FENGYUN 1C DEB",
        "group": "fengyun-1c-debris",
        "lat": 79.64502990880005,
        "lon": 45.22322743609768,
        "alt_km": 825.7949196326499,
        "timestamp": "2025-12-03T08:58:46.279908+00:00",
        "meta_object_name": "FENGYUN 1C DEB",
        "meta_object_id": "1999-025ASJ",
        "meta_epoch": "2025-12-02T10:57:10.970208",
        "meta_mean_motion": 14.37002332,
        "meta_eccentricity": 0.00930548,
        "meta_inclination": 99.3161,
        "meta_ra_of_asc_node": 160.2865,
        "meta_arg_of_pericenter": 290.0804,
        "meta_mean_anomaly": 99.0491,
        "meta_ephemeris_type": 0,
        "meta_classification_type": "U",
        "meta_norad_cat_id": 30724,
        "meta_element_set_no": 999,
        "meta_rev_at_epoch": 98305,
        "meta_bstar": 0.00053378755,
        "meta_mean_motion_dot": 1.61e-05,
        "meta_mean_motion_ddot": 0,
        "tle_line1": "1 30724U 99025ASJ 25336.45637697  .00001610  00000+0  53379-3 0  9994",
        "tle_line2": "2 30724  99.3161 160.2865 0093054 290.0804  99.0491 14.37002332983051"
      },
      "geometry": {
        "type": "Point",
        "coordinates": [
          45.22322743609768,
          79.64502990880005
        ]
      }
    }
  ]
}